<?xml version="1.0" encoding="UTF-8"?>
<gpx version="1.1" creator="Etna Trekking" xmlns="http://www.topografix.com/GPX/1/1">
  <metadata>
    <name>Sentiero Serracozzo (Light)</name>
  </metadata>
  <trk>
    <name>Sentiero Serracozzo (Light)</name>
    <trkseg>
      <trkpt lat="37.765050" lon="15.058996"><ele>1738.3</ele></trkpt>
      <trkpt lat="37.764876" lon="15.058016"><ele>1740.0</ele></trkpt>
      <trkpt lat="37.764934" lon="15.057753"><ele>1742.0</ele></trkpt>
      <trkpt lat="37.764828" lon="15.057661"><ele>1741.8</ele></trkpt>
      <trkpt lat="37.764860" lon="15.057102"><ele>1747.5</ele></trkpt>
      <trkpt lat="37.764617" lon="15.056680"><ele>1753.5</ele></trkpt>
      <trkpt lat="37.764718" lon="15.056204"><ele>1758.8</ele></trkpt>
      <trkpt lat="37.764710" lon="15.055664"><ele>1766.3</ele></trkpt>
      <trkpt lat="37.764562" lon="15.055476"><ele>1770.5</ele></trkpt>
      <trkpt lat="37.764485" lon="15.055011"><ele>1779.5</ele></trkpt>
      <trkpt lat="37.764260" lon="15.054700"><ele>1787.8</ele></trkpt>
      <trkpt lat="37.764280" lon="15.054020"><ele>1800.3</ele></trkpt>
      <trkpt lat="37.763946" lon="15.052875"><ele>1822.0</ele></trkpt>
      <trkpt lat="37.763160" lon="15.051546"><ele>1852.3</ele></trkpt>
      <trkpt lat="37.762828" lon="15.051395"><ele>1856.8</ele></trkpt>
      <trkpt lat="37.762356" lon="15.051543"><ele>1855.5</ele></trkpt>
      <trkpt lat="37.761967" lon="15.051384"><ele>1865.5</ele></trkpt>
      <trkpt lat="37.761846" lon="15.051569"><ele>1862.0</ele></trkpt>
      <trkpt lat="37.761632" lon="15.051547"><ele>1866.0</ele></trkpt>
      <trkpt lat="37.761472" lon="15.051665"><ele>1865.8</ele></trkpt>
      <trkpt lat="37.761252" lon="15.051574"><ele>1872.8</ele></trkpt>
      <trkpt lat="37.761067" lon="15.051849"><ele>1868.3</ele></trkpt>
      <trkpt lat="37.760453" lon="15.051980"><ele>1872.5</ele></trkpt>
      <trkpt lat="37.760120" lon="15.052311"><ele>1866.8</ele></trkpt>
      <trkpt lat="37.759608" lon="15.052473"><ele>1871.0</ele></trkpt>
      <trkpt lat="37.758579" lon="15.053887"><ele>1847.0</ele></trkpt>
      <trkpt lat="37.758047" lon="15.053859"><ele>1849.8</ele></trkpt>
      <trkpt lat="37.757984" lon="15.054008"><ele>1845.0</ele></trkpt>
      <trkpt lat="37.757822" lon="15.054094"><ele>1842.0</ele></trkpt>
      <trkpt lat="37.757732" lon="15.054019"><ele>1844.3</ele></trkpt>
      <trkpt lat="37.757574" lon="15.054050"><ele>1843.3</ele></trkpt>
      <trkpt lat="37.757252" lon="15.053701"><ele>1854.0</ele></trkpt>
      <trkpt lat="37.757044" lon="15.053901"><ele>1848.8</ele></trkpt>
      <trkpt lat="37.756795" lon="15.053959"><ele>1847.5</ele></trkpt>
      <trkpt lat="37.756395" lon="15.053917"><ele>1857.5</ele></trkpt>
      <trkpt lat="37.756086" lon="15.054579"><ele>1858.5</ele></trkpt>
      <trkpt lat="37.755866" lon="15.054606"><ele>1865.3</ele></trkpt>
      <trkpt lat="37.755525" lon="15.054282"><ele>1878.5</ele></trkpt>
      <trkpt lat="37.755532" lon="15.054184"><ele>1880.0</ele></trkpt>
      <trkpt lat="37.755376" lon="15.053990"><ele>1890.5</ele></trkpt>
      <trkpt lat="37.755142" lon="15.053912"><ele>1901.8</ele></trkpt>
      <trkpt lat="37.755051" lon="15.053589"><ele>1915.5</ele></trkpt>
      <trkpt lat="37.754917" lon="15.053519"><ele>1919.8</ele></trkpt>
      <trkpt lat="37.754949" lon="15.053383"><ele>1924.3</ele></trkpt>
      <trkpt lat="37.754835" lon="15.053152"><ele>1930.8</ele></trkpt>
      <trkpt lat="37.754996" lon="15.053136"><ele>1930.8</ele></trkpt>
      <trkpt lat="37.754770" lon="15.052940"><ele>1937.0</ele></trkpt>
      <trkpt lat="37.754724" lon="15.052591"><ele>1947.5</ele></trkpt>
      <trkpt lat="37.754797" lon="15.052458"><ele>1950.5</ele></trkpt>
      <trkpt lat="37.754674" lon="15.052340"><ele>1955.3</ele></trkpt>
      <trkpt lat="37.754689" lon="15.051948"><ele>1965.5</ele></trkpt>
      <trkpt lat="37.754612" lon="15.051850"><ele>1969.5</ele></trkpt>
      <trkpt lat="37.754604" lon="15.051617"><ele>1975.8</ele></trkpt>
      <trkpt lat="37.754806" lon="15.051487"><ele>1975.3</ele></trkpt>
      <trkpt lat="37.754788" lon="15.051406"><ele>1977.3</ele></trkpt>
      <trkpt lat="37.754607" lon="15.051299"><ele>1982.8</ele></trkpt>
      <trkpt lat="37.754404" lon="15.051425"><ele>1983.5</ele></trkpt>
      <trkpt lat="37.754366" lon="15.051302"><ele>1987.0</ele></trkpt>
      <trkpt lat="37.753942" lon="15.051044"><ele>1999.3</ele></trkpt>
      <trkpt lat="37.753511" lon="15.050131"><ele>2027.0</ele></trkpt>
      <trkpt lat="37.753500" lon="15.049921"><ele>2031.3</ele></trkpt>
      <trkpt lat="37.753121" lon="15.049363"><ele>2026.3</ele></trkpt>
      <trkpt lat="37.753110" lon="15.049151"><ele>2024.5</ele></trkpt>
      <trkpt lat="37.753387" lon="15.049320"><ele>2036.0</ele></trkpt>
      <trkpt lat="37.753433" lon="15.049215"><ele>2037.8</ele></trkpt>
      <trkpt lat="37.753495" lon="15.049271"><ele>2038.5</ele></trkpt>
      <trkpt lat="37.753740" lon="15.049230"><ele>2044.5</ele></trkpt>
      <trkpt lat="37.753833" lon="15.049067"><ele>2046.3</ele></trkpt>
      <trkpt lat="37.754246" lon="15.048742"><ele>2053.3</ele></trkpt>
      <trkpt lat="37.754517" lon="15.048177"><ele>2053.0</ele></trkpt>
      <trkpt lat="37.754589" lon="15.048174"><ele>2053.3</ele></trkpt>
      <trkpt lat="37.754674" lon="15.047749"><ele>2055.8</ele></trkpt>
      <trkpt lat="37.754839" lon="15.047470"><ele>2061.8</ele></trkpt>
      <trkpt lat="37.754865" lon="15.046461"><ele>2084.8</ele></trkpt>
      <trkpt lat="37.754737" lon="15.045378"><ele>2096.5</ele></trkpt>
      <trkpt lat="37.754892" lon="15.043384"><ele>2138.3</ele></trkpt>
      <trkpt lat="37.755043" lon="15.043274"><ele>2144.3</ele></trkpt>
      <trkpt lat="37.755042" lon="15.043130"><ele>2142.3</ele></trkpt>
      <trkpt lat="37.755497" lon="15.042555"><ele>2149.0</ele></trkpt>
      <trkpt lat="37.755617" lon="15.042473"><ele>2153.3</ele></trkpt>
      <trkpt lat="37.755807" lon="15.042566"><ele>2159.3</ele></trkpt>
      <trkpt lat="37.755972" lon="15.042289"><ele>2161.3</ele></trkpt>
      <trkpt lat="37.756192" lon="15.042150"><ele>2162.3</ele></trkpt>
      <trkpt lat="37.756655" lon="15.042089"><ele>2163.3</ele></trkpt>
      <trkpt lat="37.756313" lon="15.041079"><ele>2175.3</ele></trkpt>
      <trkpt lat="37.756606" lon="15.040440"><ele>2194.8</ele></trkpt>
      <trkpt lat="37.757028" lon="15.039968"><ele>2211.0</ele></trkpt>
      <trkpt lat="37.757315" lon="15.039502"><ele>2225.3</ele></trkpt>
      <trkpt lat="37.757439" lon="15.038622"><ele>2248.8</ele></trkpt>
      <trkpt lat="37.757757" lon="15.038002"><ele>2263.8</ele></trkpt>
      <trkpt lat="37.758148" lon="15.037661"><ele>2281.5</ele></trkpt>
      <trkpt lat="37.758535" lon="15.037690"><ele>2292.8</ele></trkpt>
      <trkpt lat="37.758965" lon="15.037538"><ele>2303.3</ele></trkpt>
      <trkpt lat="37.759140" lon="15.038931"><ele>2259.3</ele></trkpt>
      <trkpt lat="37.759470" lon="15.039498"><ele>2235.3</ele></trkpt>
      <trkpt lat="37.759903" lon="15.039763"><ele>2222.0</ele></trkpt>
      <trkpt lat="37.760077" lon="15.039964"><ele>2213.0</ele></trkpt>
      <trkpt lat="37.760446" lon="15.040756"><ele>2182.5</ele></trkpt>
      <trkpt lat="37.760446" lon="15.040937"><ele>2178.0</ele></trkpt>
      <trkpt lat="37.760287" lon="15.041214"><ele>2174.0</ele></trkpt>
      <trkpt lat="37.760363" lon="15.041640"><ele>2163.0</ele></trkpt>
      <trkpt lat="37.760338" lon="15.042295"><ele>2144.0</ele></trkpt>
      <trkpt lat="37.760729" lon="15.042576"><ele>2133.5</ele></trkpt>
      <trkpt lat="37.760725" lon="15.042753"><ele>2128.8</ele></trkpt>
      <trkpt lat="37.760576" lon="15.042958"><ele>2124.0</ele></trkpt>
      <trkpt lat="37.760582" lon="15.043336"><ele>2113.8</ele></trkpt>
      <trkpt lat="37.760671" lon="15.043488"><ele>2108.5</ele></trkpt>
      <trkpt lat="37.760633" lon="15.043730"><ele>2101.0</ele></trkpt>
      <trkpt lat="37.760814" lon="15.044220"><ele>2086.0</ele></trkpt>
      <trkpt lat="37.760964" lon="15.044304"><ele>2080.5</ele></trkpt>
      <trkpt lat="37.761116" lon="15.044698"><ele>2064.8</ele></trkpt>
      <trkpt lat="37.761116" lon="15.045345"><ele>2047.5</ele></trkpt>
      <trkpt lat="37.761037" lon="15.045530"><ele>2045.8</ele></trkpt>
      <trkpt lat="37.761326" lon="15.045956"><ele>2026.3</ele></trkpt>
      <trkpt lat="37.761481" lon="15.045875"><ele>2023.8</ele></trkpt>
      <trkpt lat="37.761580" lon="15.046133"><ele>2013.8</ele></trkpt>
      <trkpt lat="37.761736" lon="15.046265"><ele>2006.3</ele></trkpt>
      <trkpt lat="37.761745" lon="15.046402"><ele>2002.8</ele></trkpt>
      <trkpt lat="37.762002" lon="15.046691"><ele>1990.0</ele></trkpt>
      <trkpt lat="37.762098" lon="15.046707"><ele>1987.5</ele></trkpt>
      <trkpt lat="37.762301" lon="15.047009"><ele>1975.5</ele></trkpt>
      <trkpt lat="37.762730" lon="15.047849"><ele>1947.0</ele></trkpt>
      <trkpt lat="37.762924" lon="15.048025"><ele>1939.3</ele></trkpt>
      <trkpt lat="37.763064" lon="15.048918"><ele>1916.3</ele></trkpt>
      <trkpt lat="37.763264" lon="15.048998"><ele>1912.8</ele></trkpt>
      <trkpt lat="37.763467" lon="15.049263"><ele>1904.0</ele></trkpt>
      <trkpt lat="37.763597" lon="15.049617"><ele>1892.8</ele></trkpt>
      <trkpt lat="37.763569" lon="15.050264"><ele>1878.5</ele></trkpt>
      <trkpt lat="37.763121" lon="15.051515"><ele>1853.0</ele></trkpt>
      <trkpt lat="37.763946" lon="15.052875"><ele>1822.0</ele></trkpt>
      <trkpt lat="37.764280" lon="15.054020"><ele>1800.3</ele></trkpt>
      <trkpt lat="37.764260" lon="15.054700"><ele>1787.8</ele></trkpt>
      <trkpt lat="37.764485" lon="15.055011"><ele>1779.5</ele></trkpt>
      <trkpt lat="37.764562" lon="15.055476"><ele>1770.5</ele></trkpt>
      <trkpt lat="37.764710" lon="15.055664"><ele>1766.3</ele></trkpt>
      <trkpt lat="37.764718" lon="15.056204"><ele>1758.8</ele></trkpt>
      <trkpt lat="37.764617" lon="15.056680"><ele>1753.5</ele></trkpt>
      <trkpt lat="37.764860" lon="15.057102"><ele>1747.5</ele></trkpt>
      <trkpt lat="37.764828" lon="15.057661"><ele>1741.8</ele></trkpt>
      <trkpt lat="37.764934" lon="15.057753"><ele>1742.0</ele></trkpt>
      <trkpt lat="37.764876" lon="15.058016"><ele>1740.0</ele></trkpt>
      <trkpt lat="37.765054" lon="15.059022"><ele>1734.8</ele></trkpt>
    </trkseg>
  </trk>
</gpx>
