<?xml version="1.0" encoding="UTF-8"?>
<kml xmlns="http://www.opengis.net/kml/2.2">
  <Document>
    <name>Sentiero Serracozzo - Etna 2026</name>
    <description>Sentiero per Serra delle Concazze e Grotta di Serracozzo da Rifugio Citelli</description>
    <Style id="trailStyle">
      <LineStyle>
        <color>ff0055ff</color>
        <width>4</width>
      </LineStyle>
    </Style>
    <Placemark>
      <name>Sentiero Serracozzo</name>
      <styleUrl>#trailStyle</styleUrl>
      <LineString>
        <tessellate>1</tessellate>
        <altitudeMode>clampToGround</altitudeMode>
        <coordinates>
          15.058996,37.765050,1738.3 15.058911,37.765040,1739.0 15.058016,37.764876,1740.0 15.057905,37.764875,1740.5 15.057820,37.764896,1741.3 15.057753,37.764934,1742.0 15.057690,37.764840,1741.8 15.057661,37.764828,1741.8 15.057579,37.764826,1742.3 15.057295,37.764864,1745.5 15.057102,37.764860,1747.5 15.056845,37.764656,1751.0 15.056680,37.764617,1753.5 15.056533,37.764630,1755.3 15.056357,37.764700,1757.0 15.056204,37.764718,1758.8 15.056050,37.764670,1760.8 15.055800,37.764730,1763.8 15.055664,37.764710,1766.3 15.055476,37.764562,1770.5 15.055250,37.764563,1774.5 15.055011,37.764485,1779.5 15.054899,37.764416,1782.3 15.054700,37.764260,1787.8 15.054361,37.764315,1793.5 15.054190,37.764260,1797.3 15.054020,37.764280,1800.3 15.053839,37.764190,1804.5 15.053709,37.764169,1807.0 15.053578,37.764117,1809.0 15.053270,37.764090,1814.8 15.053166,37.764044,1816.5 15.052875,37.763946,1822.0 15.052381,37.763682,1831.0 15.052280,37.763550,1832.8 15.052153,37.763494,1835.8 15.052009,37.763459,1839.5 15.051937,37.763410,1841.3 15.051881,37.763340,1842.8 15.051775,37.763273,1845.8 15.051634,37.763198,1850.0 15.051546,37.763160,1852.3 15.051515,37.763121,1853.0 15.051490,37.762980,1854.0 15.051395,37.762828,1856.8 15.051436,37.762703,1855.8 15.051448,37.762606,1855.8 15.051543,37.762356,1855.5 15.051527,37.762242,1857.5 15.051472,37.762081,1861.5 15.051384,37.761967,1865.5 15.051462,37.761926,1864.0 15.051569,37.761846,1862.0 15.051582,37.761684,1864.0 15.051547,37.761632,1866.0 15.051665,37.761472,1865.8 15.051574,37.761252,1872.8 15.051736,37.761153,1869.8 15.051849,37.761067,1868.3 15.051893,37.760894,1870.0 15.051886,37.760794,1871.8 15.051916,37.760695,1871.8 15.051964,37.760625,1871.3 15.051980,37.760453,1872.5 15.052054,37.760373,1871.3 15.052051,37.760330,1871.8 15.052167,37.760253,1869.3 15.052242,37.760167,1868.3 15.052311,37.760120,1866.8 15.052356,37.760013,1866.8 15.052350,37.759891,1869.0 15.052387,37.759791,1870.0 15.052435,37.759738,1869.5 15.052432,37.759683,1870.8 15.052474,37.759651,1870.3 15.052473,37.759608,1871.0 15.052580,37.759580,1868.5 15.052774,37.759360,1867.3 15.052938,37.759310,1863.3 15.052923,37.759268,1864.8 15.053026,37.759235,1862.3 15.053061,37.759172,1862.5 15.053307,37.758980,1858.5 15.053389,37.758985,1856.3 15.053460,37.758920,1855.3 15.053559,37.758869,1853.3 15.053623,37.758769,1852.8 15.053786,37.758693,1849.0 15.053887,37.758579,1847.0 15.053883,37.758427,1848.5 15.053897,37.758300,1849.0 15.053849,37.758130,1850.3 15.053859,37.758047,1849.8 15.053941,37.757978,1847.0 15.054008,37.757984,1845.0 15.054094,37.757822,1842.0 15.054019,37.757732,1844.3 15.054050,37.757574,1843.3 15.053891,37.757366,1848.3 15.053701,37.757252,1854.0 15.053807,37.757159,1851.0 15.053901,37.757044,1848.8 15.053910,37.756900,1848.8 15.053959,37.756795,1847.5 15.053939,37.756628,1849.8 15.053943,37.756562,1851.5 15.053956,37.756433,1855.3 15.053917,37.756395,1857.5 15.053958,37.756362,1857.5 15.053997,37.756386,1855.8 15.054060,37.756326,1856.0 15.054120,37.756300,1855.5 15.054174,37.756244,1856.0 15.054276,37.756234,1855.8 15.054311,37.756182,1857.3 15.054444,37.756163,1856.8 15.054494,37.756116,1858.0 15.054579,37.756086,1858.5 15.054631,37.756040,1859.5 15.054606,37.755866,1865.3 15.054490,37.755745,1869.5 15.054450,37.755670,1871.8 15.054380,37.755630,1874.0 15.054282,37.755525,1878.5 15.054184,37.755532,1880.0 15.054167,37.755460,1882.8 15.054048,37.755367,1889.3 15.053990,37.755376,1890.5 15.053933,37.755310,1894.8 15.053912,37.755142,1901.8 15.053820,37.755100,1906.3 15.053669,37.755094,1911.0 15.053589,37.755051,1915.5 15.053542,37.755000,1919.3 15.053541,37.754940,1919.0 15.053519,37.754917,1919.8 15.053383,37.754949,1924.3 15.053301,37.754901,1926.8 15.053233,37.754836,1928.5 15.053152,37.754835,1930.8 15.053131,37.754915,1931.3 15.053136,37.754996,1930.8 15.053069,37.754956,1932.8 15.053066,37.754853,1933.0 15.052992,37.754834,1935.3 15.052940,37.754770,1937.0 15.052806,37.754779,1940.8 15.052684,37.754765,1944.5 15.052591,37.754724,1947.5 15.052564,37.754770,1947.8 15.052458,37.754797,1950.5 15.052422,37.754725,1952.3 15.052340,37.754674,1955.3 15.052182,37.754704,1959.0 15.052114,37.754681,1961.3 15.051948,37.754689,1965.5 15.051850,37.754612,1969.5 15.051758,37.754625,1971.8 15.051617,37.754604,1975.8 15.051548,37.754751,1974.8 15.051487,37.754806,1975.3 15.051406,37.754788,1977.3 15.051299,37.754607,1982.8 15.051336,37.754530,1983.3 15.051360,37.754442,1984.5 15.051425,37.754404,1983.5 15.051302,37.754366,1987.0 15.051288,37.754269,1989.3 15.051197,37.754171,1993.0 15.051180,37.754072,1994.5 15.051044,37.753942,1999.3 15.050819,37.753830,2006.3 15.050715,37.753827,2009.3 15.050672,37.753771,2011.0 15.050599,37.753768,2013.0 15.050586,37.753723,2013.8 15.050443,37.753701,2017.8 15.050325,37.753611,2021.5 15.050240,37.753590,2023.8 15.050131,37.753511,2027.0 15.049921,37.753500,2031.3 15.049800,37.753429,2032.3 15.049728,37.753354,2032.5 15.049631,37.753306,2032.3 15.049472,37.753148,2027.8 15.049363,37.753121,2026.3 15.049274,37.753136,2026.8 15.049151,37.753110,2024.5 15.049177,37.753223,2030.5 15.049238,37.753294,2032.8 15.049320,37.753387,2036.0 15.049215,37.753433,2037.8 15.049271,37.753495,2038.5 15.049220,37.753632,2042.3 15.049230,37.753740,2044.5 15.049153,37.753806,2047.0 15.049067,37.753833,2046.3 15.048906,37.754026,2050.3 15.048842,37.754136,2053.5 15.048742,37.754246,2053.3 15.048575,37.754338,2052.3 15.048441,37.754379,2052.5 15.048319,37.754447,2052.8 15.048177,37.754517,2053.0 15.048174,37.754589,2053.3 15.048030,37.754655,2054.3 15.047749,37.754674,2055.8 15.047470,37.754839,2061.8 15.046794,37.754873,2078.5 15.046461,37.754865,2084.8 15.046193,37.754814,2087.3 15.045785,37.754771,2092.5 15.045378,37.754737,2096.5 15.044702,37.754805,2108.0 15.044047,37.754831,2120.3 15.043733,37.754854,2128.3 15.043384,37.754892,2138.3 15.043274,37.755043,2144.3 15.043130,37.755042,2142.3 15.042947,37.755204,2143.0 15.042823,37.755285,2143.8 15.042727,37.755378,2145.8 15.042555,37.755497,2149.0 15.042473,37.755617,2153.3 15.042571,37.755751,2157.3 15.042566,37.755807,2159.3 15.042384,37.755886,2161.0 15.042289,37.755972,2161.3 15.042208,37.756091,2161.8 15.042150,37.756192,2162.3 15.042108,37.756315,2162.8 15.042087,37.756538,2163.3 15.042089,37.756655,2163.3 15.041876,37.756537,2167.5 15.041324,37.756416,2175.3 15.041079,37.756313,2175.3 15.040684,37.756536,2189.0 15.040440,37.756606,2194.8 15.040225,37.756754,2201.5 15.039968,37.757028,2211.0 15.039737,37.757180,2218.5 15.039502,37.757315,2225.3 15.039179,37.757397,2232.3 15.038892,37.757439,2241.0 15.038622,37.757439,2248.8 15.038353,37.757567,2260.5 15.038002,37.757757,2263.8 15.037661,37.758148,2281.5 15.037690,37.758535,2292.8 15.037538,37.758965,2303.3 15.037991,37.759000,2290.3 15.038272,37.759051,2282.0 15.038416,37.759065,2277.0 15.038634,37.759086,2269.8 15.038931,37.759140,2259.3 15.039498,37.759470,2235.3 15.039763,37.759903,2222.0 15.039964,37.760077,2213.0 15.040225,37.760236,2201.5 15.040507,37.760376,2190.5 15.040756,37.760446,2182.5 15.040937,37.760446,2178.0 15.041214,37.760287,2174.0 15.041371,37.760347,2169.5 15.041511,37.760319,2166.3 15.041640,37.760363,2163.0 15.041785,37.760335,2159.0 15.041969,37.760363,2153.3 15.042295,37.760338,2144.0 15.042403,37.760468,2140.0 15.042576,37.760729,2133.5 15.042753,37.760725,2128.8 15.042958,37.760576,2124.0 15.043336,37.760582,2113.8 15.043488,37.760671,2108.5 15.043730,37.760633,2101.0 15.044220,37.760814,2086.0 15.044304,37.760964,2080.5 15.044698,37.761116,2064.8 15.045128,37.761135,2051.8 15.045345,37.761116,2047.5 15.045530,37.761037,2045.8 15.045956,37.761326,2026.3 15.045875,37.761481,2023.8 15.046133,37.761580,2013.8 15.046265,37.761736,2006.3 15.046402,37.761745,2002.8 15.046603,37.761958,1993.0 15.046691,37.762002,1990.0 15.046707,37.762098,1987.5 15.047009,37.762301,1975.5 15.047366,37.762520,1962.8 15.047704,37.762651,1952.0 15.047849,37.762730,1947.0 15.048025,37.762924,1939.3 15.048435,37.762981,1928.5 15.048592,37.763032,1924.0 15.048918,37.763064,1916.3 15.048998,37.763264,1912.8 15.049263,37.763467,1904.0 15.049617,37.763597,1892.8 15.050075,37.763591,1881.8 15.050264,37.763569,1878.5 15.050662,37.763467,1872.0 15.050971,37.763314,1866.5 15.051515,37.763121,1853.0 15.051546,37.763160,1852.3 15.051634,37.763198,1850.0 15.051775,37.763273,1845.8 15.051881,37.763340,1842.8 15.051937,37.763410,1841.3 15.052009,37.763459,1839.5 15.052153,37.763494,1835.8 15.052280,37.763550,1832.8 15.052381,37.763682,1831.0 15.052875,37.763946,1822.0 15.053166,37.764044,1816.5 15.053270,37.764090,1814.8 15.053578,37.764117,1809.0 15.053709,37.764169,1807.0 15.053839,37.764190,1804.5 15.054020,37.764280,1800.3 15.054190,37.764260,1797.3 15.054361,37.764315,1793.5 15.054700,37.764260,1787.8 15.054899,37.764416,1782.3 15.055011,37.764485,1779.5 15.055250,37.764563,1774.5 15.055476,37.764562,1770.5 15.055664,37.764710,1766.3 15.055800,37.764730,1763.8 15.056050,37.764670,1760.8 15.056204,37.764718,1758.8 15.056357,37.764700,1757.0 15.056533,37.764630,1755.3 15.056680,37.764617,1753.5 15.056845,37.764656,1751.0 15.057102,37.764860,1747.5 15.057295,37.764864,1745.5 15.057579,37.764826,1742.3 15.057661,37.764828,1741.8 15.057690,37.764840,1741.8 15.057753,37.764934,1742.0 15.057820,37.764896,1741.3 15.057905,37.764875,1740.5 15.058016,37.764876,1740.0 15.058911,37.765040,1739.0 15.059022,37.765054,1734.8
        </coordinates>
      </LineString>
    </Placemark>
  </Document>
</kml>
